[{"OBJECT_NAME":"KUIPER-00057","OBJECT_ID":"2025-134T","EPOCH":"2026-03-09T17:50:26.275488","MEAN_MOTION":14.83766269,"ECCENTRICITY":0.00040733,"INCLINATION":51.8993,"RA_OF_ASC_NODE":230.4357,"ARG_OF_PERICENTER":273.9501,"MEAN_ANOMALY":86.0998,"EPHEMERIS_TYPE":0,"CLASSIFICATION_TYPE":"U","NORAD_CAT_ID":64517,"ELEMENT_SET_NO":999,"REV_AT_EPOCH":4011,"BSTAR":0.00072082033,"MEAN_MOTION_DOT":5.801e-5,"MEAN_MOTION_DDOT":0},{"OBJECT_NAME":"COSMOS 2251 DEB","OBJECT_ID":"1993-036BLZ","EPOCH":"2026-03-06T21:00:05.608224","MEAN_MOTION":14.97960044,"ECCENTRICITY":0.00597249,"INCLINATION":73.9479,"RA_OF_ASC_NODE":151.0759,"ARG_OF_PERICENTER":149.7591,"MEAN_ANOMALY":210.7065,"EPHEMERIS_TYPE":0,"CLASSIFICATION_TYPE":"U","NORAD_CAT_ID":37496,"ELEMENT_SET_NO":999,"REV_AT_EPOCH":67275,"BSTAR":0.0022465948,"MEAN_MOTION_DOT":0.00027564,"MEAN_MOTION_DDOT":0}]
